ONEWEB-0451             
1 51643U 22012X   23074.89694650  .00015471  00000+0  39826-1 0  9995
2 51643  87.9093 242.1397 0001589 100.8978 259.2332 13.17514316 57045
ONEWEB-0452             
1 51644U 22012Y   23074.89475191  .00011836  00000+0  30471-1 0  9991
2 51644  87.9098 242.1206 0001570  77.3745 282.7562 13.17514306 57056
ONEWEB-0455             
1 51645U 22012Z   23074.87982313  .00000699  00000+0  30569-3 0  9994
2 51645  87.5268 246.8679 0018380  39.5151 320.7375 14.22428652 57000
ONEWEB-0456             
1 51646U 22012AA  23074.92196675  .00000631  00000+0  17715-2 0  9992
2 51646  87.8731 272.5641 0001619 102.5136 257.6172 13.10374084 53593
ONEWEB-0457             
1 51647U 22012AB  23074.82380348  .00000072  00000+0  16854-3 0  9997
2 51647  87.8758 272.5601 0001935  72.5810 287.5529 13.10375844 53587
ONEWEB-0458             
1 51648U 22012AC  23074.92042050  .00000761  00000+0  21431-2 0  9995
2 51648  87.8748 272.5500 0001184  95.3047 264.8215 13.10371723 53555
ONEWEB-0461             
1 51649U 22012AD  23074.91478165  .00025793  00000+0  66501-1 0  9993
2 51649  87.9158 242.0281 0001224  94.2340 265.8931 13.17353046 57273
ONEWEB-0463             
1 51650U 22012AE  23074.89915565  .00020784  00000+0  53478-1 0  9996
2 51650  87.9113 242.1418 0001259  87.0666 273.0610 13.17520687 57056
ONEWEB-0464             
1 51651U 22012AF  23074.91729670  .00000557  00000+0  15600-2 0  9992
2 51651  87.8750 272.5392 0001198 111.9276 248.1978 13.10377747 53570
ONEWEB-0468             
1 51652U 22012AG  23074.92354176  .00000719  00000+0  20227-2 0  9990
2 51652  87.8724 272.5499 0001458  90.1505 269.9789 13.10373699 53553
ONEWEB-0473             
1 51653U 22012AH  23074.90951095  .00000445  00000+0  12371-2 0  9999
2 51653  87.8753 272.5392 0001317  95.4113 264.7164 13.10374303 53558
ONEWEB-0474             
1 51654U 22012AJ  23074.82535368  .00000151  00000+0  39666-3 0  9993
2 51654  87.8723 272.5381 0001223 104.4236 255.7027 13.10375849 53539
ONEWEB-0475             
1 51655U 22012AK  23074.90808736  .00021477  00000+0  55348-1 0  9992
2 51655  87.9084 242.1138 0001093 111.0120 249.1129 13.17409973 57071
ONEWEB-0490             
1 54113U 22138A   23074.34218735  .00000074  00000+0  15328-3 0  9991
2 54113  87.9394 181.5875 0001669 109.8935 250.2378 13.19726446 19895
ONEWEB-0492             
1 54114U 22138B   23074.28953732  .00000122  00000+0  27212-3 0  9997
2 54114  87.9372 181.6087 0001483 121.6015 238.5262 13.19725260 19897
ONEWEB-0495             
1 54115U 22138C   23074.34639746  .00000033  00000+0  51079-4 0  9991
2 54115  87.9341 181.5626 0001334 112.6172 247.5102 13.19726950 19880
ONEWEB-0497             
1 54116U 22138D   23074.35693294 -.00000075  00000+0 -22078-3 0  9995
2 54116  87.9265 181.5961 0001689 111.2066 248.9247 13.19725950 19871
ONEWEB-0499             
1 54117U 22138E   23074.34005842 -.00000547  00000+0 -13991-2 0  9998
2 54117  87.9338 181.6263 0001601  84.4263 275.7052 13.19725765 19880
ONEWEB-0500             
1 54118U 22138F   23074.34429453  .00000048  00000+0  88016-4 0  9993
2 54118  87.9268 181.6099 0001827 106.4693 253.6640 13.19724661 19895
ONEWEB-0501             
1 54119U 22138G   23074.29796216  .00000050  00000+0  92662-4 0  9997
2 54119  87.9299 181.5977 0001105 120.6931 239.4311 13.19725355 19861
ONEWEB-0502             
1 54120U 22138H   23074.35904081  .00000013  00000+0 -97821-6 0  9991
2 54120  87.9272 181.6113 0001346 109.3381 250.7898 13.19724954 19890
ONEWEB-0503             
1 54121U 22138J   23074.34851975  .00000017  00000+0  92122-5 0  9995
2 54121  87.9306 181.5924 0001420 104.1004 256.0287 13.19724589 19880
ONEWEB-0504             
1 54122U 22138K   23074.33586806  .00000028  00000+0  38817-4 0  9995
2 54122  87.9394 181.6049 0001368  97.0437 263.0851 13.19727440 19893
ONEWEB-0505             
1 54123U 22138L   23074.86238445 -.00000124  00000+0 -34248-3 0  9999
2 54123  87.9271 181.5061 0001443  93.1322 266.9976 13.19723700 19946
ONEWEB-0506             
1 54124U 22138M   23074.30635512 -.00011455  00000+0 -28659-1 0  9991
2 54124  87.9260 181.6039 0001134 110.4370 249.6885 13.19780443 19869
ONEWEB-0507             
1 54125U 22138N   23074.85815968 -.00000047  00000+0 -14937-3 0  9998
2 54125  87.9417 181.5167 0001500 113.2734 246.8557 13.19726085 19987
ONEWEB-0508             
1 54126U 22138P   23074.85394683  .00000017  00000+0  10249-4 0  9993
2 54126  87.9260 181.5009 0001192 124.0736 236.0510 13.19727841 19967
ONEWEB-0509             
1 54127U 22138Q   23074.30007599  .00000063  00000+0  12579-3 0  9999
2 54127  87.9252 181.6161 0001548 103.6435 256.4870 13.19726907 19869
ONEWEB-0510             
1 54128U 22138R   23074.67756604  .00003781  00000+0  63715-3 0  9996
2 54128  86.9049 163.6939 0012176 152.0287 208.1586 14.69255254 21182
ONEWEB-0511             
1 54129U 22138S   23074.29585784  .00000025  00000+0  30074-4 0  9995
2 54129  87.9262 181.6317 0001644  89.3119 270.8202 13.19725450 19895
ONEWEB-0512             
1 54130U 22138T   23074.28743526 -.00000035  00000+0 -12028-3 0  9997
2 54130  87.9303 181.6083 0001206 111.6848 248.4413 13.19726325 19869
ONEWEB-0513             
1 54131U 22138U   23074.91667824 -.00046354  00000+0 -11637+0 0  9999
2 54131  87.9258 181.4066 0001012  92.0285 151.0329 13.19747871  1304
ONEWEB-0514             
1 54132U 22138V   23074.30425692 -.00000023  00000+0 -89183-4 0  9997
2 54132  87.9302 181.5937 0001856 104.5245 255.6094 13.19729184 19883
ONEWEB-0515             
1 54133U 22138W   23074.61873239  .00003935  00000+0  66370-3 0  9991
2 54133  86.9075 163.7084 0013181 145.6159 214.5912 14.69207462 21207
ONEWEB-0516             
1 54134U 22138X   23074.27899083 -.00000373  00000+0 -96402-3 0  9993
2 54134  87.9310 181.6039 0001695 103.7743 256.3579 13.19725292 19885
ONEWEB-0517             
1 54135U 22138Y   23074.86448298  .00000072  00000+0  14769-3 0  9997
2 54135  87.9369 181.4933 0001241 101.2671 258.8601 13.19724550 19969
ONEWEB-0518             
1 54136U 22138Z   23074.35271019 -.00000025  00000+0 -95154-4 0  9995
2 54136  87.9358 181.5765 0001620 115.5013 244.6288 13.19726403 19896
ONEWEB-0519             
1 54137U 22138AA  23074.30217680  .00000066  00000+0  13367-3 0  9993
2 54137  87.9295 181.5957 0001273 103.2044 256.9231 13.19726591 19894
ONEWEB-0520             
1 54138U 22138AB  23074.33797916  .00000038  00000+0  61888-4 0  9993
2 54138  87.9350 181.6097 0001143 116.0075 244.1175 13.19725297 19882
ONEWEB-0521             
1 54139U 22138AC  23074.29372638 -.00000527  00000+0 -13478-2 0  9994
2 54139  87.9242 181.6117 0001888  98.9929 261.1417 13.19725859 19824
ONEWEB-0522             
1 54140U 22138AD  23074.35061155 -.00000004  00000+0 -43509-4 0  9992
2 54140  87.9307 181.5930 0001550 111.3421 248.7877 13.19726085 19871
ONEWEB-0523             
1 54141U 22138AE  23074.67801499  .00001937  00000+0  32466-3 0  9994
2 54141  86.9059 163.6630 0011701 150.3339 209.8542 14.69244804 21211
ONEWEB-0524             
1 54142U 22138AF  23074.34080421  .00003428  00000+0  57850-3 0  9994
2 54142  86.9072 163.8126 0010895 152.7861 207.3928 14.69169328 21160
ONEWEB-0525             
1 54143U 22138AG  23074.29164293  .00000019  00000+0  15400-4 0  9998
2 54143  87.9296 181.6015 0001350 106.0798 254.0483 13.19726208 19883
ONEWEB-0526             
1 54144U 22138AH  23074.85605477  .00000006  00000+0 -18303-4 0  9997
2 54144  87.9273 181.5088 0001613 110.7126 249.4179 13.19725236 19933
ONEWEB-0529             
1 54145U 22138AJ  23074.86025001  .00000130  00000+0  29332-3 0  9998
2 54145  87.9305 181.4917 0001453 122.7112 237.4160 13.19728360 19950
ONEWEB-0531             
1 54146U 22138AK  23074.68232909  .00003922  00000+0  66104-3 0  9996
2 54146  86.9060 163.6727 0012102 149.7006 210.4912 14.69248699 21219
ONEWEB-0535             
1 54147U 22138AL  23074.28535706  .00000671  00000+0  16449-2 0  9998
2 54147  87.9308 181.6012 0001925  96.8004 263.3348 13.19723793 19892
ONEWEB-0536             
1 54148U 22138AM  23074.34973601  .00003556  00000+0  60028-3 0  9994
2 54148  86.9033 163.8077 0011411 146.6965 213.4971 14.69162283 21169
GSLV R/B                
1 54149U 22138AN  23074.84886843  .00004570  00000+0  49251-3 0  9993
2 54149  87.3910 169.4942 0027122 123.6996 236.6822 14.87961401 21427
ONEWEB-0527             
1 54642U 22166A   23074.91667824  .00000015  00000+0  00000+0 0  9991
2 54642  87.4726 121.3657 0006254 285.8000  52.4737 13.66688055  1302
ONEWEB-0528             
1 54643U 22166B   23074.91667824  .00000015  00000+0  00000+0 0  9992
2 54643  87.4746 121.3593 0006384 287.2066 149.5278 13.67227428  1308
ONEWEB-0539             
1 54644U 22166C   23074.91667824  .00000015  00000+0  00000+0 0  9993
2 54644  87.4886 121.3407 0007671 285.5373 174.0256 13.67093301  1300
ONEWEB-0540             
1 54645U 22166D   23074.91667824  .00000016  00000+0  00000+0 0  9995
2 54645  87.5122 121.3399 0005793 292.6801  62.2753 13.72858530  1302
ONEWEB-0542             
1 54646U 22166E   23074.91667824  .00000015  00000+0  00000+0 0  9995
2 54646  87.5058 121.3256 0010932 288.8206 231.1324 13.70385248  1300
ONEWEB-0545             
1 54647U 22166F   23074.91667824  .00000015  00000+0  00000+0 0  9996
2 54647  87.4654 121.3521 0006630 289.4802  30.2557 13.63890051  1307
ONEWEB-0580             
1 54648U 22166G   23074.91667824  .00000015  00000+0  00000+0 0  9997
2 54648  87.5012 121.3475 0011298 283.0351 184.2573 13.69597985  1304
ONEWEB-0582             
1 54649U 22166H   23074.91667824  .00000015  00000+0  00000+0 0  9998
2 54649  87.4946 121.3330 0008531 281.3460 198.7644 13.69303086  1304
ONEWEB-0583             
1 54650U 22166J   23074.91667824  .00000015  00000+0  00000+0 0  9990
2 54650  87.5041 121.3460 0008939 286.8170 105.6069 13.70507961  1305
